[
    {
        "Altitude(m)": 554417.0930970365,
        "Argument of Periapsis(deg)": 0.0,
        "Eccentricity": 0.0,
        "Inclination(deg)": 53.0,
        "Latitude(deg)": 25.652167967396966,
        "Longitude(deg)": -16.063723609805685,
        "Mean Anomaly(deg)": -212.7273,
        "RAAN(deg)": 285.0,
        "Satellite Name": "Starlink Shell 1 1263",
        "Satellite Number": 1263,
        "Semi-Major Axis(m)": 6931778.249405717,
        "Time(s)": 0
    },
    {
        "Altitude(m)": 554357.043667087,
        "Argument of Periapsis(deg)": 0.00034857847951123687,
        "Eccentricity": 0.0,
        "Inclination(deg)": 53.0,
        "Latitude(deg)": 25.181943133283077,
        "Longitude(deg)": -15.643727447915174,
        "Mean Anomaly(deg)": -212.1004687964433,
        "RAAN(deg)": 284.9994812299225,
        "Satellite Name": "Starlink Shell 1 1263",
        "Satellite Number": 1263,
        "Semi-Major Axis(m)": 6931778.249405717,
        "Time(s)": 10
    },
    {
        "Altitude(m)": 554298.5910557363,
        "Argument of Periapsis(deg)": 0.0006971569590224737,
        "Eccentricity": 0.0,
        "Inclination(deg)": 53.0,
        "Latitude(deg)": 24.710262422073438,
        "Longitude(deg)": -15.227261149818164,
        "Mean Anomaly(deg)": -211.47363759288655,
        "RAAN(deg)": 284.998962459845,
        "Satellite Name": "Starlink Shell 1 1263",
        "Satellite Number": 1263,
        "Semi-Major Axis(m)": 6931778.249405717,
        "Time(s)": 20
    },
    {
        "Altitude(m)": 554241.7835908232,
        "Argument of Periapsis(deg)": 0.0010457354385337105,
        "Eccentricity": 0.0,
        "Inclination(deg)": 53.0,
        "Latitude(deg)": 24.237167026894834,
        "Longitude(deg)": -14.814233924362997,
        "Mean Anomaly(deg)": -210.84680638932986,
        "RAAN(deg)": 284.99844368976756,
        "Satellite Name": "Starlink Shell 1 1263",
        "Satellite Number": 1263,
        "Semi-Major Axis(m)": 6931778.249405717,
        "Time(s)": 30
    },
    {
        "Altitude(m)": 554186.6689482637,
        "Argument of Periapsis(deg)": 0.0013943139180449475,
        "Eccentricity": 0.0,
        "Inclination(deg)": 53.0,
        "Latitude(deg)": 23.76269730618842,
        "Longitude(deg)": -14.404555737725325,
        "Mean Anomaly(deg)": -210.21997518577314,
        "RAAN(deg)": 284.9979249196901,
        "Satellite Name": "Starlink Shell 1 1263",
        "Satellite Number": 1263,
        "Semi-Major Axis(m)": 6931778.249405717,
        "Time(s)": 40
    },
    {
        "Altitude(m)": 554133.2941262436,
        "Argument of Periapsis(deg)": 0.0017428923975561844,
        "Eccentricity": 0.0,
        "Inclination(deg)": 53.0,
        "Latitude(deg)": 23.286892809779868,
        "Longitude(deg)": -13.998138305742675,
        "Mean Anomaly(deg)": -209.59314398221642,
        "RAAN(deg)": 284.99740614961263,
        "Satellite Name": "Starlink Shell 1 1263",
        "Satellite Number": 1263,
        "Semi-Major Axis(m)": 6931778.249405717,
        "Time(s)": 50
    },
    {
        "Altitude(m)": 554081.7054196884,
        "Argument of Periapsis(deg)": 0.002091470877067421,
        "Eccentricity": 0.0,
        "Inclination(deg)": 53.0,
        "Latitude(deg)": 22.80979230442071,
        "Longitude(deg)": -13.594894572002536,
        "Mean Anomaly(deg)": -208.96631277865973,
        "RAAN(deg)": 284.9968873795351,
        "Satellite Name": "Starlink Shell 1 1263",
        "Satellite Number": 1263,
        "Semi-Major Axis(m)": 6931778.249405717,
        "Time(s)": 60
    },
    {
        "Altitude(m)": 554031.9483950612,
        "Argument of Periapsis(deg)": 0.0024400493565786582,
        "Eccentricity": 0.0,
        "Inclination(deg)": 53.0,
        "Latitude(deg)": 22.331433798799264,
        "Longitude(deg)": -13.194738184689363,
        "Mean Anomaly(deg)": -208.33948157510304,
        "RAAN(deg)": 284.99636860945765,
        "Satellite Name": "Starlink Shell 1 1263",
        "Satellite Number": 1263,
        "Semi-Major Axis(m)": 6931778.249405717,
        "Time(s)": 70
    },
    {
        "Altitude(m)": 553984.0678654929,
        "Argument of Periapsis(deg)": 0.002788627836089895,
        "Eccentricity": 0.0,
        "Inclination(deg)": 53.0,
        "Latitude(deg)": 21.851854568022652,
        "Longitude(deg)": -12.797584485191154,
        "Mean Anomaly(deg)": -207.71265037154632,
        "RAAN(deg)": 284.99584983938024,
        "Satellite Name": "Starlink Shell 1 1263",
        "Satellite Number": 1263,
        "Semi-Major Axis(m)": 6931778.249405717,
        "Time(s)": 80
    },
    {
        "Altitude(m)": 553938.1078662304,
        "Argument of Periapsis(deg)": 0.0031372063156011316,
        "Eccentricity": 0.0,
        "Inclination(deg)": 53.0,
        "Latitude(deg)": 21.371091177578737,
        "Longitude(deg)": -12.403349982833527,
        "Mean Anomaly(deg)": -207.08581916798957,
        "RAAN(deg)": 284.9953310693027,
        "Satellite Name": "Starlink Shell 1 1263",
        "Satellite Number": 1263,
        "Semi-Major Axis(m)": 6931778.249405717,
        "Time(s)": 90
    },
    {
        "Altitude(m)": 553894.1116304583,
        "Argument of Periapsis(deg)": 0.0034857847951123688,
        "Eccentricity": 0.0,
        "Inclination(deg)": 53.0,
        "Latitude(deg)": 20.889179506780753,
        "Longitude(deg)": -12.011951828720552,
        "Mean Anomaly(deg)": -206.45898796443285,
        "RAAN(deg)": 284.99481229922526,
        "Satellite Name": "Starlink Shell 1 1263",
        "Satellite Number": 1263,
        "Semi-Major Axis(m)": 6931778.249405717,
        "Time(s)": 100
    },
    {
        "Altitude(m)": 553852.1215654816,
        "Argument of Periapsis(deg)": 0.003834363274623606,
        "Eccentricity": 0.0,
        "Inclination(deg)": 53.0,
        "Latitude(deg)": 20.406154771698628,
        "Longitude(deg)": -11.623308801655432,
        "Mean Anomaly(deg)": -205.83215676087607,
        "RAAN(deg)": 284.9942935291478,
        "Satellite Name": "Starlink Shell 1 1263",
        "Satellite Number": 1263,
        "Semi-Major Axis(m)": 6931778.249405717,
        "Time(s)": 110
    },
    {
        "Altitude(m)": 553812.1792292862,
        "Argument of Periapsis(deg)": 0.004182941754134842,
        "Eccentricity": 0.0,
        "Inclination(deg)": 53.0,
        "Latitude(deg)": 19.922051547589902,
        "Longitude(deg)": -11.23734078048505,
        "Mean Anomaly(deg)": -205.20532555731947,
        "RAAN(deg)": 284.99377475907033,
        "Satellite Name": "Starlink Shell 1 1263",
        "Satellite Number": 1263,
        "Semi-Major Axis(m)": 6931778.249405717,
        "Time(s)": 120
    },
    {
        "Altitude(m)": 553774.3253075002,
        "Argument of Periapsis(deg)": 0.004531520233646079,
        "Eccentricity": 0.0,
        "Inclination(deg)": 53.0,
        "Latitude(deg)": 19.436903790835473,
        "Longitude(deg)": -10.85396821582491,
        "Mean Anomaly(deg)": -204.57849435376272,
        "RAAN(deg)": 284.9932559889928,
        "Satellite Name": "Starlink Shell 1 1263",
        "Satellite Number": 1263,
        "Semi-Major Axis(m)": 6931778.249405717,
        "Time(s)": 130
    },
    {
        "Altitude(m)": 553738.5995907378,
        "Argument of Periapsis(deg)": 0.0048800987131573164,
        "Eccentricity": 0.0,
        "Inclination(deg)": 53.0,
        "Latitude(deg)": 18.950744860386646,
        "Longitude(deg)": -10.473113114115023,
        "Mean Anomaly(deg)": -203.95166315020597,
        "RAAN(deg)": 284.99273721891535,
        "Satellite Name": "Starlink Shell 1 1263",
        "Satellite Number": 1263,
        "Semi-Major Axis(m)": 6931778.249405717,
        "Time(s)": 140
    },
    {
        "Altitude(m)": 553705.0409523892,
        "Argument of Periapsis(deg)": 0.005228677192668553,
        "Eccentricity": 0.0,
        "Inclination(deg)": 53.0,
        "Latitude(deg)": 18.463607538738323,
        "Longitude(deg)": -10.094698508330632,
        "Mean Anomaly(deg)": -203.32483194664925,
        "RAAN(deg)": 284.9922184488379,
        "Satellite Name": "Starlink Shell 1 1263",
        "Satellite Number": 1263,
        "Semi-Major Axis(m)": 6931778.249405717,
        "Time(s)": 150
    },
    {
        "Altitude(m)": 553673.6873268195,
        "Argument of Periapsis(deg)": 0.00557725567217979,
        "Eccentricity": 0.0,
        "Inclination(deg)": 53.0,
        "Latitude(deg)": 17.975524052435855,
        "Longitude(deg)": -9.718647928285542,
        "Mean Anomaly(deg)": -202.69800074309256,
        "RAAN(deg)": 284.9916996787604,
        "Satellite Name": "Starlink Shell 1 1263",
        "Satellite Number": 1263,
        "Semi-Major Axis(m)": 6931778.249405717,
        "Time(s)": 160
    },
    {
        "Altitude(m)": 553644.5756880239,
        "Argument of Periapsis(deg)": 0.0059258341516910265,
        "Eccentricity": 0.0,
        "Inclination(deg)": 53.0,
        "Latitude(deg)": 17.486526092123125,
        "Longitude(deg)": -9.344886383459842,
        "Mean Anomaly(deg)": -202.07116953953587,
        "RAAN(deg)": 284.99118090868296,
        "Satellite Name": "Starlink Shell 1 1263",
        "Satellite Number": 1263,
        "Semi-Major Axis(m)": 6931778.249405717,
        "Time(s)": 170
    },
    {
        "Altitude(m)": 553617.7420287172,
        "Argument of Periapsis(deg)": 0.006274412631202263,
        "Eccentricity": 0.0,
        "Inclination(deg)": 53.0,
        "Latitude(deg)": 16.996644832148903,
        "Longitude(deg)": -8.973339832660768,
        "Mean Anomaly(deg)": -201.44433833597915,
        "RAAN(deg)": 284.99066213860544,
        "Satellite Name": "Starlink Shell 1 1263",
        "Satellite Number": 1263,
        "Semi-Major Axis(m)": 6931778.249405717,
        "Time(s)": 180
    }
]